COSMOS 2425 (716)       
1 29670U 06062A   21311.61005517  .00000021  00000-0  00000+0 0  9993
2 29670  64.8097 250.6136 0024438 342.1845 200.6158  2.13114365115725
COSMOS 2433 (720)       
1 32275U 07052A   21311.91521509 -.00000065  00000-0  00000+0 0  9994
2 32275  66.0772  12.0258 0004577 231.5911 352.3545  2.13104314109244
COSMOS 2432 (719)       
1 32276U 07052B   21311.21969703 -.00000060  00000-0  00000-0 0  9996
2 32276  66.0901  12.1466 0008908 316.7587  42.5018  2.13103497109220
COSMOS 2434 (721)       
1 32393U 07065A   21311.41544733  .00000021  00000-0  00000-0 0  9990
2 32393  64.4291 249.0130 0000908  79.9029   9.4357  2.13103136107949
COSMOS 2436 (723)       
1 32395U 07065C   21311.45834547  .00000021  00000-0  00000-0 0  9991
2 32395  64.4377 249.0666 0015274 353.4622 264.8066  2.13102920107877
COSMOS 2456 (730)       
1 36111U 09070A   21311.33970176  .00000068  00000-0  00000-0 0  9996
2 36111  64.3011 128.6802 0001883 350.9333 208.9722  2.13099304 92600
COSMOS 2457 (733)       
1 36112U 09070B   21311.39284811  .00000068  00000-0  00000-0 0  9997
2 36112  64.2850 128.5599 0006751 147.6428 218.5594  2.13101527 92614
COSMOS 2459 (731)       
1 36400U 10007A   21311.34161469 -.00000061  00000-0  00000+0 0  9990
2 36400  65.9701  10.9482 0025199 346.6665  17.1516  2.13109855 90957
COSMOS 2461 (735)       
1 36401U 10007B   21311.34041007 -.00000061  00000-0  00000-0 0  9997
2 36401  65.9662  10.9124 0017959   4.7245 355.9394  2.13103677 90962
COSMOS 2460 (732)       
1 36402U 10007C   21311.44581167 -.00000061  00000-0  00000-0 0  9995
2 36402  65.9528  10.8645 0001919 202.8647 184.9269  2.13106530 90969
COSMOS 2464 (736)       
1 37139U 10041C   21311.33014348  .00000021  00000-0  00000-0 0  9996
2 37139  64.0283 248.2020 0028115   7.0709 236.6870  2.13100859 87013
COSMOS 2471 (701K)      
1 37372U 11009A   21311.24973411 -.00000060  00000-0  00000-0 0  9999
2 37372  65.9471  10.7989 0017270 228.6259 135.0379  2.13062384 83234
COSMOS 2476 (744)       
1 37867U 11064A   21311.65220265  .00000068  00000-0  00000+0 0  9992
2 37867  64.5936 129.9392 0019448 230.9374 112.2599  2.13101913 77953
COSMOS 2477 (745)       
1 37868U 11064B   21311.45040313  .00000069  00000-0  00000-0 0  9997
2 37868  64.6012 130.0076 0016865 231.2574 135.3901  2.13101800 77912
COSMOS 2475 (743)       
1 37869U 11064C   21311.50820064  .00000069  00000-0  00000-0 0  9993
2 37869  64.6089 130.0120 0020250 253.2632 115.5715  2.13102040 77920
COSMOS 2485 (747)       
1 39155U 13019A   21311.62734102  .00000069  00000-0  00000-0 0  9995
2 39155  64.7593 130.3198 0020164 226.6640 141.9297  2.13101970 66439
COSMOS 2492 (754)       
1 39620U 14012A   21311.45774302 -.00000062  00000-0  00000-0 0  9997
2 39620  65.8409  10.5764 0012087 315.0838 318.0484  2.13103325 59375
COSMOS 2500 (755)       
1 40001U 14032A   21311.31587045 -.00000061  00000-0  00000-0 0  9994
2 40001  65.7809  10.4579 0008344 204.1388 179.4098  2.13102435 57598
COSMOS 2501 (702K)      
1 40315U 14075A   21311.30463308  .00000020  00000-0  00000-0 0  9997
2 40315  63.7386 248.9560 0017964 212.7825 329.1115  2.13101341 53990
COSMOS 2514 (751)       
1 41330U 16008A   21311.50686942 -.00000062  00000-0  00000-0 0  9993
2 41330  65.5824  10.1986 0012038 211.9300 141.5570  2.13102860 44754
COSMOS 2516 (753)       
1 41554U 16032A   21311.41597545  .00000021  00000-0  00000-0 0  9992
2 41554  63.9639 249.1659 0014537 221.9671 320.2153  2.13107168 42361
COSMOS 2522 (752)       
1 42939U 17055A   21311.51570506  .00000021  00000-0  00000-0 0  9995
2 42939  64.1972 249.4920 0008975 249.6722 229.3270  2.13102144 32120
COSMOS 2527 (756)       
1 43508U 18053A   21311.54992890  .00000069  00000-0  00000+0 0  9995
2 43508  64.9228 130.2768 0006834 212.4152 324.9619  2.13102598 26416
COSMOS 2529 (757)       
1 43687U 18086A   21311.73504424  .00000021  00000-0  00000+0 0  9990
2 43687  64.4124 249.7413 0011197 269.9833 332.8320  2.13102146 23433
COSMOS 2534 (758)       
1 44299U 19030A   21311.47029975  .00000021  00000-0  00000-0 0  9995
2 44299  64.4830 249.6144 0013941 287.8619 246.5868  2.13101957 19079
COSMOS 2544 (759)       
1 44850U 19088A   21311.05299003  .00000072  00000-0  00000-0 0  9992
2 44850  64.9075 130.1501 0009834 254.1962 305.5794  2.13102378 14834
COSMOS 2545 (760)       
1 45358U 20018A   21311.49161480 -.00000064  00000-0  00000-0 0  9998
2 45358  64.9174  10.9903 0010534 240.9835 145.1074  2.13102749 12806
